NORAD_CAT_ID,OBJECT_NAME,OBJECT_TYPE,EPOCH,MEAN_MOTION,ECCENTRICITY,INCLINATION,RA_OF_ASC_NODE,ARG_OF_PERICENTER,MEAN_ANOMALY,BSTAR,MEAN_MOTION_DOT,MEAN_MOTION_DDOT,TLE_LINE0,TLE_LINE1,TLE_LINE2,SEMIMAJOR_AXIS,PERIOD,APOGEE,PERIGEE,DECAYED
54083.0,STARLINK-5178,PAYLOAD,2023-07-08 23:17:24,15.08839867,9.65e-05,53.2179,29.871,86.7126,273.3976,8.9374e-07,-2.74e-06,0.0,0 STARLINK-5178,1 54083U 22136AJ  23189.97041967 -.00000274  00000-0  89374-6 0  9991,2 54083  53.2179  29.8710 0000965  86.7126 273.3976 15.08839867 40316,6917.881,95.438,540.413,539.078,0.0
54083.0,STARLINK-5178,PAYLOAD,2023-07-10 11:51:16,15.0883527,9.98e-05,53.2183,23.0311,86.5009,273.6097,8.2892e-06,-1.56e-06,0.0,0 STARLINK-5178,1 54083U 22136AJ  23191.49394523 -.00000156  00000-0  82892-5 0  9996,2 54083  53.2183  23.0311 0000998  86.5009 273.6097 15.08835270 40544,6917.895,95.438,540.45,539.069,0.0
54083.0,STARLINK-5178,PAYLOAD,2023-07-10 21:23:35,15.08844197,9.63e-05,53.2181,21.2481,83.1139,276.9963,6.9778e-05,8.23e-06,0.0,0 STARLINK-5178,1 54083U 22136AJ  23191.89137734  .00000823  00000-0  69778-4 0  9996,2 54083  53.2181  21.2481 0000963  83.1139 276.9963 15.08844197 40602,6917.868,95.437,540.399,539.066,0.0
54083.0,STARLINK-5178,PAYLOAD,2023-07-11 05:20:31,15.08836731,8.85e-05,53.2176,19.7618,82.4065,277.7027,1.5114e-05,-4.7e-07,0.0,0 STARLINK-5178,1 54083U 22136AJ  23192.22258377 -.00000047  00000-0  15114-4 0  9995,2 54083  53.2176  19.7618 0000885  82.4065 277.7027 15.08836731 40653,6917.89,95.438,540.368,539.143,0.0
54083.0,STARLINK-5178,PAYLOAD,2023-07-12 13:08:14,15.08837013,8.98e-05,53.2181,13.8153,94.8142,265.2953,-2.242e-05,-6.44e-06,0.0,0 STARLINK-5178,1 54083U 22136AJ  23193.54738679 -.00000644  00000-0 -22420-4 0  9991,2 54083  53.2181  13.8153 0000898  94.8142 265.2953 15.08837013 40851,6917.89,95.438,540.376,539.133,0.0
54083.0,STARLINK-5178,PAYLOAD,2023-07-12 17:54:23,15.08852431,0.0001337,53.2181,12.9232,107.2969,252.8169,-0.00012566,-2.288e-05,0.0,0 STARLINK-5178,1 54083U 22136AJ  23193.74610060 -.00002288  00000-0 -12566-3 0  9991,2 54083  53.2181  12.9232 0001337 107.2969 252.8169 15.08852431 40889,6917.842,95.437,540.632,538.782,0.0
54083.0,STARLINK-5178,PAYLOAD,2023-07-13 17:45:10,15.08834999,0.0001055,53.2192,8.4621,94.5794,265.5319,1.1706e-05,-1.01e-06,0.0,0 STARLINK-5178,1 54083U 22136AJ  23194.73970765 -.00000101  00000-0  11706-4 0  9999,2 54083  53.2192   8.4621 0001055  94.5794 265.5319 15.08834999 41039,6917.896,95.438,540.491,539.031,0.0
54083.0,STARLINK-5178,PAYLOAD,2023-07-14 17:35:56,15.08844863,8.81e-05,53.2176,4.0019,80.2484,279.8608,0.00010481,1.381e-05,0.0,0 STARLINK-5178,1 54083U 22136AJ  23195.73329837  .00001381  00000-0  10481-3 0  9996,2 54083  53.2176   4.0019 0000881  80.2484 279.8608 15.08844863 41184,6917.866,95.437,540.34,539.121,0.0
54083.0,STARLINK-5178,PAYLOAD,2023-07-15 11:05:12,15.08832147,0.0001187,53.2176,0.7306,85.3435,274.7692,3.0417e-05,1.96e-06,0.0,0 STARLINK-5178,1 54083U 22136AJ  23196.46194930  .00000196  00000-0  30417-4 0  9996,2 54083  53.2176   0.7306 0001187  85.3435 274.7692 15.08832147 41299,6917.904,95.438,540.591,538.948,0.0
54083.0,STARLINK-5178,PAYLOAD,2023-07-16 18:52:55,15.08843267,0.0001059,53.2186,354.7833,85.2409,274.8704,-3.3008e-05,-8.13e-06,0.0,0 STARLINK-5178,1 54083U 22136AJ  23197.78674771 -.00000813  00000-0 -33008-4 0  9995,2 54083  53.2186 354.7833 0001059  85.2409 274.8704 15.08843267 41497,6917.87,95.437,540.468,539.003,0.0
54083.0,STARLINK-5178,PAYLOAD,2023-07-18 15:23:43,15.08838531,0.0001207,53.2185,346.4549,88.8072,271.3059,2.8377e-06,-2.43e-06,0.0,0 STARLINK-5178,1 54083U 22136AJ  23199.64147143 -.00000243  00000-0  28377-5 0  9990,2 54083  53.2185 346.4549 0001207  88.8072 271.3059 15.08838531 41772,6917.885,95.438,540.585,538.915,0.0
54083.0,STARLINK-5178,PAYLOAD,2023-07-19 08:52:58,15.08832411,9.55e-05,53.2185,343.1852,97.3404,262.7697,-0.00015738,-2.791e-05,0.0,0 STARLINK-5178,1 54083U 22136AJ  23200.37012364 -.00002791  00000-0 -15738-3 0  9995,2 54083  53.2185 343.1852 0000955  97.3404 262.7697 15.08832411 41881,6917.904,95.438,540.429,539.108,0.0
54083.0,STARLINK-5178,PAYLOAD,2023-07-19 18:25:17,15.08837175,0.0001107,53.2187,341.4016,92.2235,267.8884,-9.4424e-05,-1.79e-05,0.0,0 STARLINK-5178,1 54083U 22136AJ  23200.76756019 -.00001790  00000-0 -94424-4 0  9998,2 54083  53.2187 341.4016 0001107  92.2235 267.8884 15.08837175 41945,6917.889,95.438,540.52,538.988,0.0
54083.0,STARLINK-5178,PAYLOAD,2023-07-20 13:29:54,15.08847859,0.0001565,53.2186,337.8333,123.0031,237.1112,-6.3956e-06,-3.9e-06,0.0,0 STARLINK-5178,1 54083U 22136AJ  23201.56243278 -.00000390  00000-0 -63956-5 0  9997,2 54083  53.2186 337.8333 0001565 123.0031 237.1112 15.08847859 42068,6917.856,95.437,540.804,538.639,0.0
54083.0,STARLINK-5178,PAYLOAD,2023-07-21 18:06:50,15.08846685,0.0001141,53.2187,332.4795,84.9007,275.2115,0.00013197,1.813e-05,0.0,0 STARLINK-5178,1 54083U 22136AJ  23202.75474786  .00001813  00000-0  13197-3 0  9998,2 54083  53.2187 332.4795 0001141  84.9007 275.2115 15.08846685 42242,6917.86,95.437,540.514,538.936,0.0
54083.0,STARLINK-5178,PAYLOAD,2023-07-24 08:06:53,15.0883884,0.0001551,53.2172,320.8818,92.9062,267.2108,7.3588e-05,8.83e-06,0.0,0 STARLINK-5178,1 54083U 22136AJ  23205.33811529  .00000883  00000-0  73588-4 0  9992,2 54083  53.2172 320.8818 0001551  92.9062 267.2108 15.08838840 42155,6917.884,95.438,540.822,538.676,0.0
54083.0,STARLINK-5178,PAYLOAD,2023-07-25 12:43:50,15.08837971,0.0001258,53.2177,315.5321,87.1572,272.9564,-1.8326e-05,-5.79e-06,0.0,0 STARLINK-5178,1 54083U 22136AJ  23206.53044074 -.00000579  00000-0 -18326-4 0  9991,2 54083  53.2177 315.5321 0001258  87.1572 272.9564 15.08837971 42339,6917.887,95.438,540.622,538.881,0.0
54083.0,STARLINK-5178,PAYLOAD,2023-07-26 17:20:45,15.08843341,0.0001361,53.2172,310.1794,78.1916,281.9228,6.5501e-05,7.55e-06,0.0,0 STARLINK-5178,1 54083U 22136AJ  23207.72275372  .00000755  00000-0  65501-4 0  9991,2 54083  53.2172 310.1794 0001361  78.1916 281.9228 15.08843341 42993,6917.87,95.437,540.677,538.794,0.0
54083.0,STARLINK-5178,PAYLOAD,2023-07-27 15:36:10,15.08836593,0.0001737,53.2161,306.0147,86.4636,273.6555,3.5132e-05,2.71e-06,0.0,0 STARLINK-5178,1 54083U 22136AJ  23208.65012190  .00000271  00000-0  35132-4 0  9991,2 54083  53.2161 306.0147 0001737  86.4636 273.6555 15.08836593 43134,6917.891,95.438,540.957,538.554,0.0
54083.0,STARLINK-5178,PAYLOAD,2023-07-28 07:30:02,15.08837356,0.0001226,53.216,303.0425,91.9212,268.192,-0.00014053,-2.524e-05,0.0,0 STARLINK-5178,1 54083U 22136AJ  23209.31252864 -.00002524  00000-0 -14053-3 0  9992,2 54083  53.2160 303.0425 0001226  91.9212 268.1920 15.08837356 43237,6917.888,95.438,540.602,538.905,0.0
54083.0,STARLINK-5178,PAYLOAD,2023-07-29 10:31:35,15.08840604,0.0001275,53.2173,297.9881,83.2575,276.8562,4.5847e-05,4.42e-06,0.0,0 STARLINK-5178,1 54083U 22136AJ  23210.43860173  .00000442  00000-0  45847-4 0  9996,2 54083  53.2173 297.9881 0001275  83.2575 276.8562 15.08840604 43405,6917.879,95.438,540.626,538.862,0.0
54083.0,STARLINK-5178,PAYLOAD,2023-07-30 15:08:31,15.08841165,0.0001129,53.217,292.6352,90.7435,269.3687,7.7847e-05,9.51e-06,0.0,0 STARLINK-5178,1 54083U 22136AJ  23211.63092179  .00000951  00000-0  77847-4 0  9992,2 54083  53.2170 292.6352 0001129  90.7435 269.3687 15.08841165 43580,6917.877,95.437,540.523,538.961,0.0
54083.0,STARLINK-5178,PAYLOAD,2023-08-01 14:50:05,15.08838586,0.0001181,53.2168,283.7136,98.3709,261.7417,-1.0543e-05,-4.56e-06,0.0,0 STARLINK-5178,1 54083U 22136AJ  23213.61812450 -.00000456  00000-0 -10543-4 0  9996,2 54083  53.2168 283.7136 0001181  98.3709 261.7417 15.08838586 43887,6917.885,95.438,540.567,538.933,0.0
54083.0,STARLINK-5178,PAYLOAD,2023-08-02 03:33:11,15.08832116,0.0001198,53.2165,281.3344,98.7576,261.3552,-3.5671e-05,-8.55e-06,0.0,0 STARLINK-5178,1 54083U 22136AJ  23214.14805062 -.00000855  00000-0 -35671-4 0  9998,2 54083  53.2165 281.3344 0001198  98.7576 261.3552 15.08832116 43961,6917.904,95.438,540.598,538.941,0.0
54083.0,STARLINK-5178,PAYLOAD,2023-08-02 11:30:06,15.08838328,0.0001154,53.2171,279.8491,89.6581,270.4543,-1.0847e-05,-4.6e-06,0.0,0 STARLINK-5178,1 54083U 22136AJ  23214.47924714 -.00000460  00000-0 -10847-4 0  9990,2 54083  53.2171 279.8491 0001154  89.6581 270.4543 15.08838328 44019,6917.885,95.438,540.549,538.952,0.0
54083.0,STARLINK-5178,PAYLOAD,2023-08-04 03:14:45,15.08831829,0.0001143,53.2165,272.4154,83.4699,276.6424,6.1315e-05,6.88e-06,0.0,0 STARLINK-5178,1 54083U 22136AJ  23216.13525414  .00000688  00000-0  61315-4 0  9995,2 54083  53.2165 272.4154 0001143  83.4699 276.6424 15.08831829 44269,6917.905,95.438,540.561,538.98,0.0
54083.0,STARLINK-5178,PAYLOAD,2023-08-05 03:05:32,15.08840042,0.0001112,53.2162,267.954,94.1701,265.9418,4.4951e-05,4.28e-06,0.0,0 STARLINK-5178,1 54083U 22136AJ  23217.12885110  .00000428  00000-0  44951-4 0  9996,2 54083  53.2162 267.9540 0001112  94.1701 265.9418 15.08840042 44411,6917.88,95.438,540.515,538.976,0.0
54083.0,STARLINK-5178,PAYLOAD,2023-08-05 11:02:27,15.0884814,0.0001159,53.2164,266.4677,91.134,268.9785,0.00011247,1.503e-05,0.0,0 STARLINK-5178,1 54083U 22136AJ  23217.46004331  .00001503  00000-0  11247-3 0  9997,2 54083  53.2164 266.4677 0001159  91.1340 268.9785 15.08848140 44467,6917.856,95.437,540.522,538.919,0.0
54083.0,STARLINK-5178,PAYLOAD,2023-08-06 02:56:19,15.08839556,0.0001306,53.2167,263.4946,82.9048,277.2092,6.5345e-05,7.52e-06,0.0,0 STARLINK-5178,1 54083U 22136AJ  23218.12244972  .00000752  00000-0  65345-4 0  9992,2 54083  53.2167 263.4946 0001306  82.9048 277.2092 15.08839556 44569,6917.882,95.438,540.65,538.843,0.0
54083.0,STARLINK-5178,PAYLOAD,2023-08-07 09:08:39,15.088409,0.0001203,53.2162,257.843,91.2596,268.8534,-3.0373e-05,-7.71e-06,0.0,0 STARLINK-5178,1 54083U 22136AJ  23219.38101115 -.00000771  00000-0 -30373-4 0  9998,2 54083  53.2162 257.8430 0001203  91.2596 268.8534 15.08840900 44759,6917.878,95.437,540.575,538.91,0.0
